{
  "norad_id": 45064,
  "name": "STARLINK-1133",
  "history": [
    {
      "epoch": "2026-03-28T17:41:44.133504Z",
      "apogee_km": 475.8504496443038,
      "perigee_km": 474.40646661227674,
      "latitude_deg": -3.547238808380588e-05,
      "longitude_deg": 77.73511594313145,
      "height_km": 476.0132633677032,
      "semi_major_axis_km": 6853.26545812829,
      "eccentricity": 0.00010535,
      "inclination_deg": 53.1608,
      "raan_deg": 169.3225,
      "arg_perigee_deg": 88.9154,
      "mean_anomaly_deg": 271.1967,
      "mean_motion_rev_day": 15.30229008
    }
  ]
}